#aV2015  6  5  0  0  0.00000000     288 DD+AD WGS84 FIT  NGA
## 1847 432000.00000000   300.00000000 57178 0.0000000000000
+   31     1  2  3  4  5  6  7  9 10 11 12 13 14 15 16 17 18
+         19 20 21 22 23 24 25 26 27 28 29 30 31 32  0  0  0
+          0  0  0  0  0  0  0  0  0  0  0  0  0  0  0  0  0
+          0  0  0  0  0  0  0  0  0  0  0  0  0  0  0  0  0
+          0  0  0  0  0  0  0  0  0  0  0  0  0  0  0  0  0
++         2  2  2  2  2  2  2  2  2  2  2  2  2  2  2  2  2
++         2  2  2  2  2  2  2  2  2  2  2  2  2  2  0  0  0
++         0  0  0  0  0  0  0  0  0  0  0  0  0  0  0  0  0
++         0  0  0  0  0  0  0  0  0  0  0  0  0  0  0  0  0
++         0  0  0  0  0  0  0  0  0  0  0  0  0  0  0  0  0
%c cc cc ccc ccc cccc cccc cccc cccc ccccc ccccc ccccc ccccc
%c cc cc ccc ccc cccc cccc cccc cccc ccccc ccccc ccccc ccccc
%f  0.0000000  0.000000000  0.00000000000  0.000000000000000
%f  0.0000000  0.000000000  0.00000000000  0.000000000000000
%i    0    0    0    0      0      0      0      0         0
%i    0    0    0    0      0      0      0      0         0
/*      NGA, ST. LOUIS,MO.                                  
/*   EPHEMERIS COMPUTED FROM  1 DAYS OF DATA                
/*   EPOCHA SMOOTHER                                       
/* CCCCCCCCCCCCCCCCCCCCCCCCCCCCCCCCCCCCCCCCCCCCCCCCCCCCCCCCC
*  2015  6  5 22  0  0.00000000
P  1  13526.048996 -10327.602168  20290.459070     -4.658036                    
V  1   2708.886547  25810.356273  11490.149492      0.004941                    
P  2 -14256.864101 -13672.246673 -17586.964618    570.291471                    
V  2   -501.405466 -23035.378243  17495.063611      0.023518                    
P  3  22833.766537 -13415.044251   2290.934589    344.149716                    
V  3   -815.620203   3964.317121  31512.267305      0.079830                    
P  4  15572.849701    354.893518  21199.090208    -17.831475                    
V  4   2238.968184  27661.814330  -1812.601266     -0.018244                    
P  5 -19549.947500  -2330.435905 -17959.550971   -232.887804                    
V  5  17773.822508 -14200.743950 -17367.911260      0.045163                    
P  6  -7054.459910 -24450.392497  -7621.100333    177.787687                    
V  6   1913.103804  -9835.788385  29769.661676      0.088393                    
P  7   6936.143339 -22627.494820 -11562.401494    466.842545                    
V  7   3096.066606  14840.524609 -27311.569141      0.023907                    
P  9   9965.619588 -11990.036818 -21513.894172   -166.711922                    
V  9  24401.113772  12260.616697   4453.166712     -0.049912                    
P 10  -2512.958960 -16593.522337 -20892.445518   -177.780222                    
V 10  22120.949625 -13347.021047   8514.854573     -0.014139                    
P 11  15727.287648  -4847.572963  20324.528868   -583.062732                    
V 11  10692.552968  25147.627530  -2092.882282     -0.025224                    
P 12 -23701.119614  10593.677355   4918.754702    299.005771                    
V 12   4408.410118  -5067.582446  31715.707594      0.031885                    
P 13 -23134.276525 -12621.418683   2586.226949   -120.801991                    
V 13  -1591.158183  -3953.746750 -31912.201082     -0.034018                    
P 14   8926.006106  18756.185836  16883.128830     58.179722                    
V 14 -18788.367366  -9281.898168  20389.183773     -0.027968                    
P 15 -24184.321948  -1435.979385  11155.212016   -253.318507                    
V 15 -11923.545501  -8321.491231 -26385.064909     -0.021452                    
P 16  18886.392026   3172.192675 -18644.080314   -121.898208                    
V 16 -19746.341946  12405.357871 -17606.001384      0.038451                    
P 17  -9322.595093 -18397.176948  17147.137496   -174.561696                    
V 17  19151.501015   8944.526224  20158.109344     -0.016878                    
P 18 -10278.480910  20208.309930  14093.026385    407.078101                    
V 18 -15890.728815   7450.230278 -23399.545632      0.029834                    
P 19  23889.299379   6625.609445   9958.875751   -512.542967                    
V 19   9871.447525   8323.014498 -28198.320968     -0.010902                    
P 20 -22913.810694   6337.254961 -12161.319611    326.852518                    
V 20  10056.993703 -11798.222818 -25370.638747      0.035783                    
P 21  -4598.675742  24115.106189  -8971.666856   -452.672603                    
V 21  -4825.874038 -12160.839218 -28398.732234     -0.033932                    
P 22   1652.792371  17466.187735  20134.852879    357.973866                    
V 22 -21452.004225  13377.400910 -10138.860889      0.039228                    
P 23  19724.071825  -4133.624227 -17366.612272   -112.985532                    
V 23  19168.462685  11361.538443  18465.870207     -0.024306                    
P 24 -14364.885991   7343.762768  21038.019396    -49.466597                    
V 24  -3051.285595 -26689.954612   7363.680310     -0.006190                    
P 25 -18219.423299  17925.949921  -6996.372897    -36.681341                    
V 25  -8548.672036   3012.159548  30572.468472     -0.040692                    
P 26  10334.046359  11336.672577 -21691.396710     30.391055                    
V 26 -22669.239493  15611.680611  -2636.404309     -0.009911                    
P 27  23658.344526  12181.768534   -904.618134     77.096610                    
V 27  -2099.708759   1755.968362 -31804.857931      0.027082                    
P 28   4312.037235 -17633.037917  19977.289578    444.816710                    
V 28  21196.311358 -11259.711459 -15067.853515      0.026262                    
P 29 -12066.832385   9953.020672 -21438.232076    614.889093                    
V 29 -23517.845966 -13751.704345   6893.106543      0.023276                    
P 30    829.869634 -26493.357768   -972.105754    -48.625633                    
V 30   3025.827217   1239.902193 -31658.374398      0.062344                    
P 31   8212.837179  22530.744014 -10911.887103    313.810623                    
V 31  -1826.950025  14219.492903  27991.136331     -0.011165                    
P 32  22431.624362  -1233.723428  13714.225909   -132.842349                    
V 32 -14030.674282  11169.686015  24453.305721      0.096796                    
EOF
